{
    "links": {
        "self": "http://www.neowsapp.com/rest/v1/neo/3343101?api_key=iIulBulltgU6a56xZRHN4H3l9WmuAYTsLGpBGhQ2"
    },
    "id": "3343101",
    "neo_reference_id": "3343101",
    "name": "(2006 SQ19)",
    "designation": "2006 SQ19",
    "nasa_jpl_url": "http://ssd.jpl.nasa.gov/sbdb.cgi?sstr=3343101",
    "absolute_magnitude_h": 23.2,
    "estimated_diameter": {
        "kilometers": {
            "estimated_diameter_min": 0.0608912622,
            "estimated_diameter_max": 0.1361570015
        },
        "meters": {
            "estimated_diameter_min": 60.8912622106,
            "estimated_diameter_max": 136.1570015386
        },
        "miles": {
            "estimated_diameter_min": 0.0378360645,
            "estimated_diameter_max": 0.0846040122
        },
        "feet": {
            "estimated_diameter_min": 199.7744887109,
            "estimated_diameter_max": 446.7093369279
        }
    },
    "is_potentially_hazardous_asteroid": false,
    "close_approach_data": [
        {
            "close_approach_date": "2006-09-22",
            "close_approach_date_full": "2006-Sep-22 01:15",
            "epoch_date_close_approach": 1158887700000,
            "relative_velocity": {
                "kilometers_per_second": "5.5918324779",
                "kilometers_per_hour": "20130.5969204962",
                "miles_per_hour": "12508.3700698494"
            },
            "miss_distance": {
                "astronomical": "0.1499764506",
                "lunar": "58.3408392834",
                "kilometers": "22436157.559920222",
                "miles": "13941181.8465421836"
            },
            "orbiting_body": "Earth"
        }
    ],
    "orbital_data": {
        "orbit_id": "11",
        "orbit_determination_date": "2017-04-06 09:08:06",
        "first_observation_date": "2006-09-19",
        "last_observation_date": "2006-10-19",
        "data_arc_in_days": 30,
        "observations_used": 50,
        "orbit_uncertainty": "7",
        "minimum_orbit_intersection": ".142349",
        "jupiter_tisserand_invariant": "3.359",
        "epoch_osculation": "2459000.5",
        "eccentricity": ".5140917770663848",
        "semi_major_axis": "2.352272599885864",
        "inclination": "6.243400194901112",
        "ascending_node_longitude": "349.5629959468459",
        "orbital_period": "1317.740523110588",
        "perihelion_distance": "1.142988598865975",
        "perihelion_argument": "13.98783086479479",
        "aphelion_distance": "3.561556600905752",
        "perihelion_time": "2459282.813763403232",
        "mean_anomaly": "282.8733175896767",
        "mean_motion": ".2731949072570093",
        "equinox": "J2000",
        "orbit_class": {
            "orbit_class_type": "AMO",
            "orbit_class_description": "Near-Earth asteroid orbits similar to that of 1221 Amor",
            "orbit_class_range": "1.017 AU < q (perihelion) < 1.3 AU"
        }
    },
    "is_sentry_object": false
}